OBJECT_NAME,OBJECT_ID,EPOCH,MEAN_MOTION,ECCENTRICITY,INCLINATION,RA_OF_ASC_NODE,ARG_OF_PERICENTER,MEAN_ANOMALY,EPHEMERIS_TYPE,CLASSIFICATION_TYPE,NORAD_CAT_ID,ELEMENT_SET_NO,REV_AT_EPOCH,BSTAR,MEAN_MOTION_DOT,MEAN_MOTION_DDOT
FLOCK 4BE-18,2024-149N,2026-07-17T16:53:07.151136,15.42762302,.0005241,97.3724,282.7723,137.6755,222.4897,0,U,60480,999,10701,.2153991E-3,.9334E-4,0
FLOCK 4BE-7,2024-149P,2026-07-17T11:29:54.398112,15.41519532,.0004406,97.3751,281.8315,142.8195,217.3358,0,U,60481,999,10691,.30338E-3,.1265E-3,0
TOMORROW-S2,2024-149T,2026-07-17T18:44:29.442048,15.33162246,.00040304,97.3810,279.6827,142.6596,217.4928,0,U,60485,999,10677,.12633902E-3,.3969E-4,0
FLOCK 4BE-36,2024-149U,2026-07-17T18:55:13.031328,15.43594294,.00050028,97.3739,283.6018,145.6214,214.5359,0,U,60486,999,10707,.21447598E-3,.9558E-4,0
FLOCK 4BE-25,2024-149V,2026-07-17T18:32:21.278400,15.39587397,.00037963,97.3792,282.1459,136.5774,223.5771,0,U,60487,999,10694,.19943018E-3,.7767E-4,0
FLOCK 4BE-31,2024-149W,2026-07-17T18:56:47.159808,15.45222952,.00038515,97.3792,284.5545,144.0587,216.0921,0,U,60488,999,10710,.25423467E-3,.11993E-3,0
FLOCK 4BE-20,2024-149X,2026-07-17T22:42:05.456736,15.38860051,.00052312,97.3685,281.1224,146.2125,213.9455,0,U,60489,999,10694,.21359113E-3,.813E-4,0
FLOCK 4BE-23,2024-149Y,2026-07-16T18:34:14.282688,15.38391323,.0004798,97.3776,280.3352,151.9413,208.2092,0,U,60490,999,10674,.22341406E-3,.8378E-4,0
FLOCK 4BE-17,2024-149AA,2026-07-17T22:48:47.990016,15.40622360,.00045536,97.3762,282.5799,139.8515,220.3069,0,U,60492,999,10699,.22951701E-3,.9265E-4,0
NUSAT-50 (NANCY ROMAN),2024-149AB,2026-07-17T18:34:40.240704,15.30345080,.00048851,97.3778,279.8256,95.5616,264.6182,0,U,60493,999,10680,.17037201E-3,.4925E-4,0
FLOCK 4BE-22,2024-149AC,2026-07-17T18:35:08.496960,15.42035940,.00048707,97.3728,282.6432,146.6652,213.4902,0,U,60494,999,10701,.21877572E-3,.9253E-4,0
FLOCK 4BE-34,2024-149AD,2026-07-17T19:00:31.135392,15.41999308,.00050489,97.3780,283.5025,154.1697,205.9803,0,U,60495,999,10704,.20779683E-3,.8773E-4,0
TYCHE,2024-149AE,2026-07-17T22:58:17.349600,15.25789785,.00032196,97.3746,276.3586,159.7652,200.3714,0,U,60496,999,10659,.89019317E-4,.2202E-4,0
FLOCK 4BE-32,2024-149AF,2026-07-17T19:18:00.575712,15.43141684,.00051145,97.3713,283.0829,151.1661,208.9870,0,U,60497,999,10705,.23401827E-3,.1028E-3,0
NUSAT-48 (HENRIETTA LEAVITT),2024-149AG,2026-07-17T23:01:26.562144,15.30301907,.00050209,97.3911,280.3066,150.6549,209.4975,0,U,60498,999,10684,.16732955E-3,.4829E-4,0
NUSAT-49 (KLARA DAN VON NEUMANN),2024-149AJ,2026-07-17T05:12:44.974944,15.29800004,.0002525,97.3781,279.3028,161.7492,198.3840,0,U,60500,999,10672,.61424254E-4,.1697E-4,0
FLOCK 4BE-11,2024-149AK,2026-07-17T18:47:19.078944,15.43931788,.00052033,97.3691,283.3204,151.4241,208.7293,0,U,60501,999,10707,.22754362E-3,.10264E-3,0
YAM-7,2024-149AN,2026-07-17T11:51:48.892896,15.32199915,.0003931,97.3775,278.6274,161.3714,198.7672,0,U,60504,999,10669,.1238E-3,.3771E-4,0
FLOCK 4BE-24,2024-149AP,2026-07-17T12:10:01.261056,15.44157393,.0005185,97.3708,283.3103,162.8670,197.2755,0,U,60505,999,10704,.25243E-3,.11485E-3,0
LUR-1,2024-149AQ,2026-07-17T20:17:46.549824,15.30466843,.00042607,97.3728,277.4580,173.5134,186.6163,0,U,60506,999,10666,.13066497E-3,.3773E-4,0
TANAGER-1,2024-149AR,2026-07-16T20:01:13.067328,15.43939801,.0001584,97.2319,291.9587,131.3184,228.8201,0,U,60507,999,10761,.5816828E-5,.18E-5,0
EAGLEEYE,2024-149AS,2026-07-17T19:30:06.703776,15.77280031,.00047614,97.3713,293.9856,180.4391,179.6871,0,U,60508,999,10775,.61226818E-3,.101168E-2,0
FLOCK 4BE-29,2024-149AT,2026-07-17T16:33:38.176416,15.45608628,.00037443,97.3805,285.0482,170.4207,189.7115,0,U,60509,999,10712,.4866147E-3,.23375E-3,0
TRANSPORTER-11 OBJECT AU,2024-149AU,2026-07-17T18:42:24.009120,15.41018788,.00045334,97.3721,282.7606,160.1632,199.9791,0,U,60510,999,10702,.20010635E-3,.8173E-4,0
FLOCK 4BE-2,2024-149AV,2026-07-16T19:13:20.797824,15.56038813,.00053637,97.3829,286.0140,168.9366,191.2008,0,U,60511,999,10710,.61822673E-3,.43143E-3,0
FLOCK 4BE-13,2024-149AW,2026-07-17T18:42:43.392096,15.42659205,.00052767,97.3713,283.5247,148.2418,211.9148,0,U,60512,999,10708,.18012651E-3,.7763E-4,0
FLOCK 4BE-27,2024-149AX,2026-07-17T21:42:00.144576,15.34946092,.00043059,97.3818,280.7796,172.7036,187.4271,0,U,60513,999,10685,.15872186E-3,.53E-4,0
