FLOCK 4BE-18            
1 60480U 24149N   26198.70355499  .00009334  00000+0  21540-3 0  9999
2 60480  97.3724 282.7723 0005241 137.6755 222.4897 15.42762302107014
FLOCK 4BE-7             
1 60481U 24149P   26198.47910183  .00012650  00000+0  30338-3 0  9991
2 60481  97.3751 281.8315 0004406 142.8195 217.3358 15.41519532106917
TOMORROW-S2             
1 60485U 24149T   26198.78089632  .00003969  00000+0  12634-3 0  9997
2 60485  97.3810 279.6827 0004030 142.6596 217.4928 15.33162246106771
FLOCK 4BE-36            
1 60486U 24149U   26198.78834527  .00009558  00000+0  21448-3 0  9992
2 60486  97.3739 283.6018 0005002 145.6214 214.5359 15.43594294107072
FLOCK 4BE-25            
1 60487U 24149V   26198.77246850  .00007767  00000+0  19943-3 0  9995
2 60487  97.3792 282.1459 0003796 136.5774 223.5771 15.39587397106947
FLOCK 4BE-31            
1 60488U 24149W   26198.78943472  .00011993  00000+0  25423-3 0  9997
2 60488  97.3792 284.5545 0003851 144.0587 216.0921 15.45222952107101
FLOCK 4BE-20            
1 60489U 24149X   26198.94589649  .00008130  00000+0  21359-3 0  9991
2 60489  97.3685 281.1224 0005231 146.2125 213.9455 15.38860051106945
FLOCK 4BE-23            
1 60490U 24149Y   26197.77377642  .00008378  00000+0  22341-3 0  9997
2 60490  97.3776 280.3352 0004798 151.9413 208.2092 15.38391323106744
FLOCK 4BE-17            
1 60492U 24149AA  26198.95055544  .00009265  00000+0  22952-3 0  9998
2 60492  97.3762 282.5799 0004553 139.8515 220.3069 15.40622360106994
NUSAT-50 (NANCY ROMAN)  
1 60493U 24149AB  26198.77407686  .00004925  00000+0  17037-3 0  9993
2 60493  97.3778 279.8256 0004885  95.5616 264.6182 15.30345080106804
FLOCK 4BE-22            
1 60494U 24149AC  26198.77440390  .00009253  00000+0  21878-3 0  9990
2 60494  97.3728 282.6432 0004870 146.6652 213.4902 15.42035940107010
FLOCK 4BE-34            
1 60495U 24149AD  26198.79202703  .00008773  00000+0  20780-3 0  9994
2 60495  97.3780 283.5025 0005048 154.1697 205.9803 15.41999308107043
TYCHE                   
1 60496U 24149AE  26198.95714525  .00002202  00000+0  89019-4 0  9995
2 60496  97.3746 276.3586 0003219 159.7652 200.3714 15.25789785106595
FLOCK 4BE-32            
1 60497U 24149AF  26198.80417333  .00010280  00000+0  23402-3 0  9995
2 60497  97.3713 283.0829 0005114 151.1661 208.9870 15.43141684107056
NUSAT-48 (HENRIETTA LE*)
1 60498U 24149AG  26198.95933521  .00004829  00000+0  16733-3 0  9995
2 60498  97.3911 280.3066 0005020 150.6549 209.4975 15.30301907106845
NUSAT-49 (KLARA DAN VO*)
1 60500U 24149AJ  26198.21718721  .00001697  00000+0  61424-4 0  9999
2 60500  97.3781 279.3028 0002525 161.7492 198.3840 15.29800004106721
FLOCK 4BE-11            
1 60501U 24149AK  26198.78285971  .00010264  00000+0  22754-3 0  9990
2 60501  97.3691 283.3204 0005203 151.4241 208.7293 15.43931788107074
YAM-7                   
1 60504U 24149AN  26198.49431589  .00003771  00000+0  12380-3 0  9998
2 60504  97.3775 278.6274 0003931 161.3714 198.7672 15.32199915106697
FLOCK 4BE-24            
1 60505U 24149AP  26198.50695904  .00011485  00000+0  25243-3 0  9997
2 60505  97.3708 283.3103 0005185 162.8670 197.2755 15.44157393107041
LUR-1                   
1 60506U 24149AQ  26198.84567766  .00003773  00000+0  13066-3 0  9990
2 60506  97.3728 277.4580 0004260 173.5134 186.6163 15.30466843106664
TANAGER-1               
1 60507U 24149AR  26197.83417902  .00000180  00000+0  58168-5 0  9998
2 60507  97.2319 291.9587 0001584 131.3184 228.8201 15.43939801107612
EAGLEEYE                
1 60508U 24149AS  26198.81257759  .00101168  00000+0  61227-3 0  9996
2 60508  97.3713 293.9856 0004761 180.4391 179.6871 15.77280031107750
FLOCK 4BE-29            
1 60509U 24149AT  26198.69002519  .00023375  00000+0  48661-3 0  9995
2 60509  97.3805 285.0482 0003744 170.4207 189.7115 15.45608628107120
TRANSPORTER-11 OBJECT AU
1 60510U 24149AU  26198.77944455  .00008173  00000+0  20011-3 0  9998
2 60510  97.3721 282.7606 0004533 160.1632 199.9791 15.41018788107026
FLOCK 4BE-2             
1 60511U 24149AV  26197.80093516  .00043143  00000+0  61823-3 0  9997
2 60511  97.3829 286.0140 0005363 168.9366 191.2008 15.56038813107100
FLOCK 4BE-13            
1 60512U 24149AW  26198.77966889  .00007763  00000+0  18013-3 0  9998
2 60512  97.3713 283.5247 0005276 148.2418 211.9148 15.42659205107086
FLOCK 4BE-27            
1 60513U 24149AX  26198.90416834  .00005300  00000+0  15872-3 0  9999
2 60513  97.3818 280.7796 0004305 172.7036 187.4271 15.34946092106853
